{"type":"FeatureCollection", "features": [
{"type":"Feature","geometry":{"type":"Polygon","coordinates":[[[92.896,24.391],[92.762,24.513],[92.532,24.178],[92.422,24.25],[92.295,24.245],[92.265,23.727],[92.402,23.266],[92.509,22.741],[92.606,22.124],[92.855,22.063],[93.161,22.18],[93.097,22.786],[93.123,23.006],[93.196,23.056],[93.358,23.331],[93.39,23.497],[93.253,24.021],[93.207,24.047],[93.009,24.413],[92.896,24.391]]]},"properties":{"st_nm":"Mizoram"}},
{"type":"Feature","geometry":{"type":"Polygon","coordinates":[[[79.284,13.123],[79.228,13.158],[78.621,12.991],[78.603,12.844],[78.412,12.627],[78.231,12.76],[77.866,12.87],[77.831,12.866],[77.601,12.668],[77.471,12.243],[77.747,12.155],[77.676,11.952],[76.909,11.795],[76.848,11.595],[76.418,11.671],[76.234,11.527],[76.442,11.201],[76.707,11.24],[76.656,10.939],[76.907,10.782],[76.834,10.339],[76.892,10.26],[77.051,10.262],[77.091,10.315],[77.288,10.232],[77.268,10.122],[77.167,9.612],[77.403,9.526],[77.34,9.42],[77.282,9.299],[77.204,9.07],[77.256,8.879],[77.199,8.771],[77.27,8.578],[77.098,8.292],[77.589,8.14],[77.97,8.335],[78.172,8.883],[78.384,9.094],[79.065,9.299],[78.9,9.469],[79.117,9.85],[79.227,10.137],[79.472,10.316],[79.872,10.36],[79.849,10.827],[79.724,10.929],[79.748,10.996],[79.851,10.985],[79.813,11.424],[79.808,11.845],[79.686,11.88],[79.84,11.956],[80.008,12.254],[80.25,12.858],[80.3,13.142],[80.268,13.565],[80.037,13.538],[79.946,13.364],[79.284,13.123]]]},"properties":{"st_nm":"Tamil Nadu"}},
{"type":"Feature","geometry":{"type":"Polygon","coordinates":[[[76.782,21.559],[77.062,21.713],[77.479,21.77],[77.575,21.527],[78.03,21.421],[78.343,21.589],[78.433,21.497],[78.9,21.501],[79.235,21.718],[79.51,21.596],[79.539,21.541],[79.918,21.524],[80.268,21.618],[80.661,21.333],[80.846,21.835],[81.045,22.241],[81.193,22.491],[81.475,22.489],[81.729,22.67],[81.732,22.676],[82.123,23.104],[81.986,23.415],[81.603,23.885],[82.209,23.853],[82.498,23.784],[82.694,23.919],[82.813,23.962],[82.798,24.576],[82.524,24.677],[82.298,24.607],[82.094,24.817],[81.541,25.188],[81.12,24.904],[80.715,25.066],[80.478,24.976],[80.264,25.024],[80.105,25.35],[79.673,25.121],[79.28,25.324],[79.323,25.15],[78.88,25.158],[78.559,25.213],[78.64,25.071],[78.985,24.442],[78.991,24.417],[78.806,24.179],[78.268,24.45],[78.19,24.842],[78.374,25.099],[78.447,25.122],[78.39,25.206],[78.452,25.572],[78.886,25.913],[78.938,25.952],[79.135,26.44],[78.78,26.769],[78.545,26.764],[78.222,26.832],[77.375,26.365],[77.12,26.214],[76.852,26.032],[76.546,25.838],[76.594,25.408],[77.083,25.337],[77.312,25.081],[76.877,25.041],[77.069,24.557],[76.844,24.436],[76.881,24.131],[76.213,24.209],[75.69,23.747],[75.462,23.918],[75.837,24.057],[75.921,24.543],[75.785,24.762],[75.549,24.703],[75.352,25.019],[75.191,25.037],[74.697,24.483],[74.908,24.212],[74.941,23.765],[74.772,23.543],[74.734,23.221],[74.32,23.06],[74.379,22.635],[74.058,22.55],[74.147,21.951],[74.433,22.03],[74.505,21.726],[74.775,21.615],[75.211,21.412],[75.609,21.39],[75.987,21.369],[76.383,21.076],[76.662,21.281],[76.782,21.559]]]},"properties":{"st_nm":"Madhya Pradesh"}},
{"type":"Feature","geometry":{"type":"Polygon","coordinates":[[[74.147,21.951],[73.939,21.874],[73.982,21.522],[73.807,21.009],[73.849,20.999],[73.849,20.998],[73.889,20.933],[73.942,20.84],[73.745,20.565],[73.474,20.72],[73.407,20.624],[73.249,20.122],[73.211,20.121],[72.962,20.209],[72.775,20.132],[72.654,19.836],[72.798,19.304],[72.784,19.264],[72.836,18.864],[73.044,17.982],[73.289,17.116],[73.347,16.53],[73.511,15.937],[73.685,15.728],[74.118,15.651],[74.21,15.781],[74.48,16.249],[74.315,16.555],[74.696,16.715],[75.341,16.956],[75.604,17.305],[76.075,17.337],[76.383,17.315],[76.429,17.643],[76.685,17.682],[76.74,17.899],[76.919,17.916],[77.265,18.423],[77.551,18.292],[77.739,18.556],[77.949,18.844],[77.863,19.304],[78.193,19.317],[78.306,19.912],[78.842,19.762],[78.936,19.55],[79.806,19.579],[79.929,19.158],[79.914,18.826],[80.276,18.72],[80.482,19.337],[80.852,19.365],[80.672,19.703],[80.545,20.1],[80.562,20.823],[80.464,21.175],[80.661,21.333],[80.268,21.618],[79.918,21.524],[79.539,21.541],[79.51,21.596],[79.235,21.718],[78.9,21.501],[78.433,21.497],[78.343,21.589],[78.03,21.421],[77.575,21.527],[77.479,21.77],[77.062,21.713],[76.782,21.559],[76.662,21.281],[76.383,21.076],[75.987,21.369],[75.609,21.39],[75.211,21.412],[74.775,21.615],[74.505,21.726],[74.433,22.03],[74.147,21.951]]]},"properties":{"st_nm":"Maharashtra"}},
{"type":"Feature","geometry":{"type":"Polygon","coordinates":[[[80.276,18.72],[80.372,18.611],[80.706,18.439],[80.756,18.17],[80.979,18.166],[81.085,17.797],[81.397,17.818],[81.53,18.24],[81.9,18.661],[82.091,18.738],[82.206,19.121],[82.028,19.508],[81.875,20.052],[82.018,20.049],[82.594,19.776],[82.718,19.989],[82.398,20.056],[82.339,20.874],[82.639,21.089],[83.192,21.139],[83.269,21.377],[83.487,21.644],[83.591,21.825],[83.802,22.294],[84.012,22.528],[84.293,22.773],[84.038,23.171],[84.074,23.334],[84.016,23.635],[83.33,24.102],[82.813,23.962],[82.694,23.919],[82.498,23.784],[82.209,23.853],[81.603,23.885],[81.986,23.415],[82.123,23.104],[81.732,22.676],[81.729,22.67],[81.475,22.489],[81.193,22.491],[81.045,22.241],[80.846,21.835],[80.661,21.333],[80.464,21.175],[80.562,20.823],[80.545,20.1],[80.672,19.703],[80.852,19.365],[80.482,19.337],[80.276,18.72]]]},"properties":{"st_nm":"Chhattisgarh"}},
{"type":"Feature","geometry":{"type":"Polygon","coordinates":[[[72.775,20.132],[72.962,20.209],[73.043,20.326],[73.211,20.121],[73.249,20.122],[73.407,20.624],[73.474,20.72],[73.745,20.565],[73.942,20.84],[73.889,20.933],[73.849,20.998],[73.849,20.999],[73.807,21.009],[73.982,21.522],[73.939,21.874],[74.147,21.951],[74.058,22.55],[74.379,22.635],[74.32,23.06],[73.982,23.338],[73.959,23.38],[73.627,23.449],[73.369,23.815],[73.378,23.904],[73.067,24.194],[73.002,24.48],[72.959,24.36],[72.335,24.633],[72.058,24.712],[71.287,24.616],[71.188,24.651],[71.112,24.675],[70.806,24.22],[70.573,24.422],[69.732,24.171],[68.764,24.296],[68.754,23.971],[68.339,23.966],[68.31,23.578],[68.633,23.17],[69.131,22.874],[69.648,22.796],[70.081,22.92],[70.312,23.215],[70.689,23.118],[70.497,22.933],[70.125,22.553],[69.754,22.418],[68.966,22.234],[69.396,21.889],[69.981,21.227],[70.24,20.992],[70.92,20.742],[71,20.742],[71.206,20.796],[71.677,20.996],[72.113,21.199],[72.309,21.625],[72.245,21.995],[72.376,22.315],[72.947,22.293],[72.867,22.214],[72.567,22.181],[72.543,21.733],[72.736,21.475],[72.751,21.062],[72.855,20.75],[72.887,20.462],[72.829,20.368],[72.775,20.132]]]},"properties":{"st_nm":"Gujarat"}},
{"type":"Feature","geometry":{"type":"Polygon","coordinates":[[[81.397,17.818],[81.979,18.013],[82.319,18.045],[82.428,18.486],[82.773,18.342],[83.077,18.404],[82.999,18.609],[83.348,19.018],[83.756,18.911],[83.793,19.018],[83.891,18.816],[84.423,18.949],[84.701,19.119],[85.172,19.468],[85.679,19.745],[86.37,19.982],[86.777,20.335],[86.806,20.735],[86.859,21.214],[87.148,21.509],[87.485,21.615],[87.442,21.768],[87.243,21.964],[87.101,21.864],[86.728,22.216],[86.067,22.557],[85.963,22.485],[86.009,22.116],[85.683,22.058],[85.238,22.01],[85.029,22.122],[85.07,22.491],[84.429,22.352],[84.012,22.528],[83.802,22.294],[83.591,21.825],[83.487,21.644],[83.269,21.377],[83.192,21.139],[82.639,21.089],[82.339,20.874],[82.398,20.056],[82.718,19.989],[82.594,19.776],[82.018,20.049],[81.875,20.052],[82.028,19.508],[82.206,19.121],[82.091,18.738],[81.9,18.661],[81.53,18.24],[81.397,17.818]]]},"properties":{"st_nm":"Odisha"}},
{"type":"Feature","geometry":{"type":"Polygon","coordinates":[[[80.268,13.565],[80.131,14.229],[80.196,14.586],[80.04,15.009],[80.123,15.368],[80.418,15.799],[80.831,15.706],[81.008,15.755],[81.213,16.208],[81.553,16.347],[81.715,16.311],[82.314,16.559],[82.319,17.058],[82.542,17.249],[83.162,17.56],[83.519,17.95],[83.663,18.079],[84.128,18.313],[84.701,19.119],[84.423,18.949],[83.891,18.816],[83.793,19.018],[83.756,18.911],[83.348,19.018],[82.999,18.609],[83.077,18.404],[82.773,18.342],[82.428,18.486],[82.319,18.045],[81.979,18.013],[81.397,17.818],[81.085,17.797],[80.911,17.638],[81.31,17.41],[80.941,17.219],[80.877,17.07],[80.056,16.971],[80.073,16.817],[79.68,16.693],[79.258,16.566],[79.21,16.357],[79.215,16.226],[78.923,16.123],[78.256,16.009],[78.248,15.972],[78.083,15.841],[77.514,15.928],[77.026,15.837],[77.156,15.14],[76.76,14.989],[76.765,14.602],[77.005,14.235],[77.003,14.198],[76.948,14.095],[77.456,13.683],[77.97,13.959],[78.126,13.787],[78.196,13.569],[78.586,13.276],[78.231,12.76],[78.412,12.627],[78.603,12.844],[78.621,12.991],[79.228,13.158],[79.284,13.123],[79.946,13.364],[80.037,13.538],[80.268,13.565]]]},"properties":{"st_nm":"Andhra Pradesh"}},
{"type":"Feature","geometry":{"type":"Polygon","coordinates":[[[78.231,12.76],[78.586,13.276],[78.196,13.569],[78.126,13.787],[77.97,13.959],[77.456,13.683],[76.948,14.095],[77.003,14.198],[77.005,14.235],[76.765,14.602],[76.76,14.989],[77.156,15.14],[77.026,15.837],[77.514,15.928],[77.594,16.343],[77.288,16.409],[77.459,16.885],[77.467,16.955],[77.38,17.223],[77.686,17.511],[77.444,17.584],[77.656,17.969],[77.601,18.276],[77.551,18.292],[77.265,18.423],[76.919,17.916],[76.74,17.899],[76.685,17.682],[76.429,17.643],[76.383,17.315],[76.075,17.337],[75.604,17.305],[75.341,16.956],[74.696,16.715],[74.315,16.555],[74.48,16.249],[74.21,15.781],[74.118,15.651],[74.278,15.522],[74.251,15.492],[74.297,15.041],[74.086,14.901],[74.263,14.719],[74.583,13.926],[74.777,13.071],[74.869,12.759],[75.416,12.499],[75.415,12.29],[75.936,11.941],[76.113,11.979],[76.413,11.758],[76.418,11.671],[76.848,11.595],[76.909,11.795],[77.676,11.952],[77.747,12.155],[77.471,12.243],[77.601,12.668],[77.831,12.866],[77.866,12.87],[78.231,12.76]]]},"properties":{"st_nm":"Karnataka"}},
{"type":"Feature","geometry":{"type":"Polygon","coordinates":[[[74.118,15.651],[73.685,15.728],[73.934,15.433],[74.086,14.901],[74.297,15.041],[74.251,15.492],[74.278,15.522],[74.118,15.651]]]},"properties":{"st_nm":"Goa"}},
{"type":"Feature","geometry":{"type":"Polygon","coordinates":[[[76.418,11.671],[76.413,11.758],[76.113,11.979],[75.936,11.941],[75.415,12.29],[75.416,12.499],[74.869,12.759],[75.165,12.089],[75.554,11.702],[75.826,11.123],[75.958,10.686],[76.214,10.194],[76.28,9.789],[76.479,9.123],[76.682,8.776],[77.098,8.292],[77.27,8.578],[77.199,8.771],[77.256,8.879],[77.204,9.07],[77.282,9.299],[77.34,9.42],[77.403,9.526],[77.167,9.612],[77.268,10.122],[77.288,10.232],[77.091,10.315],[77.051,10.262],[76.892,10.26],[76.834,10.339],[76.907,10.782],[76.656,10.939],[76.707,11.24],[76.442,11.201],[76.234,11.527],[76.418,11.671]]]},"properties":{"st_nm":"Kerala"}},
{"type":"Feature","geometry":{"type":"Polygon","coordinates":[[[77.551,18.292],[77.601,18.276],[77.656,17.969],[77.444,17.584],[77.686,17.511],[77.38,17.223],[77.467,16.955],[77.459,16.885],[77.288,16.409],[77.594,16.343],[77.514,15.928],[78.083,15.841],[78.248,15.972],[78.256,16.009],[78.923,16.123],[79.215,16.226],[79.21,16.357],[79.258,16.566],[79.68,16.693],[80.073,16.817],[80.056,16.971],[80.877,17.07],[80.941,17.219],[81.31,17.41],[80.911,17.638],[81.085,17.797],[80.979,18.166],[80.756,18.17],[80.706,18.439],[80.372,18.611],[80.276,18.72],[79.914,18.826],[79.929,19.158],[79.806,19.579],[78.936,19.55],[78.842,19.762],[78.306,19.912],[78.193,19.317],[77.863,19.304],[77.949,18.844],[77.739,18.556],[77.551,18.292]]]},"properties":{"st_nm":"Telangana"}},
{"type":"Feature","geometry":{"type":"Polygon","coordinates":[[[89.055,22.128],[88.858,22.968],[88.709,23.232],[88.593,23.617],[88.7,24.097],[88.742,24.255],[88.133,24.51],[88.027,24.69],[88.394,24.969],[88.436,25.2],[88.91,25.18],[88.812,25.524],[88.446,25.595],[88.093,25.93],[88.352,26.222],[88.333,26.497],[88.401,26.644],[88.76,26.329],[89.349,26.01],[89.729,26.171],[89.843,26.383],[89.835,26.414],[89.852,26.698],[89.09,26.841],[88.868,26.966],[88.722,27.139],[88.532,27.176],[88.425,27.071],[88.281,27.132],[88.038,27.22],[88.186,26.772],[88.11,26.548],[88.24,26.458],[87.85,26.039],[87.827,25.891],[88.067,25.484],[87.711,25.258],[87.891,24.855],[87.839,24.745],[87.89,24.565],[87.639,24.255],[87.234,24.025],[87.085,23.812],[86.801,23.834],[86.801,23.699],[86.486,23.636],[86.31,23.412],[85.885,23.483],[85.859,23.43],[85.885,23.167],[86.241,22.997],[86.559,22.714],[86.845,22.4],[86.728,22.216],[87.101,21.864],[87.243,21.964],[87.442,21.768],[87.485,21.615],[87.789,21.699],[88.186,22.105],[87.998,22.245],[88.082,22.261],[88.445,21.918],[89.069,21.949],[89.055,22.128]]]},"properties":{"st_nm":"West Bengal"}},
{"type":"Feature","geometry":{"type":"Polygon","coordinates":[[[72.962,20.209],[73.211,20.121],[73.043,20.326],[72.962,20.209]]]},"properties":{"st_nm":"Dadra and Nagar Haveli and Daman and Diu"}},
{"type":"Feature","geometry":{"type":"MultiPolygon","coordinates":[[[[79.849,10.827],[79.851,10.985],[79.748,10.996],[79.724,10.929],[79.849,10.827]]],[[[79.808,11.845],[79.84,11.956],[79.686,11.88],[79.808,11.845]]]]},"properties":{"st_nm":"Puducherry"}},
{"type":"Feature","geometry":{"type":"Polygon","coordinates":[[[73.054,8.273],[73.018,8.276],[73.043,8.263],[73.054,8.273]]]},"properties":{"st_nm":"Lakshadweep"}},
{"type":"Feature","geometry":{"type":"Polygon","coordinates":[[[93.224,28.342],[92.802,28.202],[92.734,27.976],[92.468,27.815],[91.881,27.722],[92.014,27.489],[92.113,26.893],[92.36,26.926],[92.656,27.008],[93.061,26.922],[93.398,26.957],[93.698,26.995],[94.219,27.505],[94.266,27.52],[94.213,27.606],[94.462,27.555],[95.137,27.815],[95.514,27.88],[95.519,27.884],[95.97,27.96],[95.774,27.733],[95.874,27.544],[95.634,27.231],[95.484,27.242],[95.377,27.096],[95.369,27.11],[95.196,27.034],[95.234,26.682],[95.496,26.817],[95.684,26.904],[96.022,27.18],[96.606,27.366],[96.862,27.631],[97.253,27.9],[97.371,28.218],[96.663,28.46],[96.314,28.383],[96.326,28.511],[96.519,28.967],[96.089,29.459],[95.27,29.05],[94.679,29.327],[94.187,29.039],[93.962,28.713],[93.34,28.64],[93.224,28.342]]]},"properties":{"st_nm":"Arunachal Pradesh"}},
{"type":"Feature","geometry":{"type":"Polygon","coordinates":[[[93.009,24.413],[93.087,24.572],[93.175,24.798],[93.247,24.972],[93.47,25.306],[93.329,25.543],[93.513,25.675],[93.776,25.969],[93.955,25.969],[94.164,26.351],[94.314,26.461],[94.586,26.725],[94.736,26.75],[94.791,26.797],[94.924,26.949],[95.196,27.034],[95.369,27.11],[95.377,27.096],[95.484,27.242],[95.634,27.231],[95.874,27.544],[95.774,27.733],[95.97,27.96],[95.519,27.884],[95.514,27.88],[95.137,27.815],[94.462,27.555],[94.213,27.606],[94.266,27.52],[94.219,27.505],[93.698,26.995],[93.398,26.957],[93.061,26.922],[92.656,27.008],[92.36,26.926],[92.113,26.893],[91.704,26.813],[90.951,26.777],[90.336,26.863],[89.852,26.698],[89.835,26.414],[89.843,26.383],[89.729,26.171],[89.843,25.882],[89.872,25.477],[90.02,25.607],[90.122,25.959],[90.434,25.991],[91.026,25.886],[91.008,25.825],[91.335,25.841],[91.723,26.035],[92.173,26.076],[92.274,26.065],[92.152,25.672],[92.661,25.572],[92.569,25.466],[92.54,25.099],[92.425,25.03],[92.516,24.88],[92.214,24.509],[92.295,24.245],[92.422,24.25],[92.532,24.178],[92.762,24.513],[92.896,24.391],[93.009,24.413]]]},"properties":{"st_nm":"Assam"}},
{"type":"Feature","geometry":{"type":"Polygon","coordinates":[[[93.47,25.306],[93.805,25.463],[93.936,25.559],[94.19,25.548],[94.488,25.605],[94.675,25.445],[94.883,25.587],[95.014,25.891],[95.123,26.348],[95.234,26.682],[95.196,27.034],[94.924,26.949],[94.791,26.797],[94.736,26.75],[94.586,26.725],[94.314,26.461],[94.164,26.351],[93.955,25.969],[93.776,25.969],[93.513,25.675],[93.329,25.543],[93.47,25.306]]]},"properties":{"st_nm":"Nagaland"}},
{"type":"Feature","geometry":{"type":"Polygon","coordinates":[[[89.872,25.477],[89.974,25.299],[90.234,25.203],[90.97,25.173],[91.355,25.233],[92.017,25.189],[92.199,25.125],[92.425,25.03],[92.54,25.099],[92.569,25.466],[92.661,25.572],[92.152,25.672],[92.274,26.065],[92.173,26.076],[91.723,26.035],[91.335,25.841],[91.008,25.825],[91.026,25.886],[90.434,25.991],[90.122,25.959],[90.02,25.607],[89.872,25.477]]]},"properties":{"st_nm":"Meghalaya"}},
{"type":"Feature","geometry":{"type":"Polygon","coordinates":[[[93.253,24.021],[93.378,24.088],[93.74,24.006],[94.156,23.848],[94.253,24.114],[94.375,24.494],[94.629,24.756],[94.653,25.115],[94.675,25.445],[94.488,25.605],[94.19,25.548],[93.936,25.559],[93.805,25.463],[93.47,25.306],[93.247,24.972],[93.175,24.798],[93.087,24.572],[93.009,24.413],[93.207,24.047],[93.253,24.021]]]},"properties":{"st_nm":"Manipur"}},
{"type":"Feature","geometry":{"type":"Polygon","coordinates":[[[92.295,24.245],[92.214,24.509],[92.071,24.377],[91.924,24.109],[91.756,24.142],[91.47,24.062],[91.226,23.732],[91.32,23.277],[91.759,23.266],[91.804,23.515],[92.176,23.707],[92.265,23.727],[92.295,24.245]]]},"properties":{"st_nm":"Tripura"}},
{"type":"Feature","geometry":{"type":"Polygon","coordinates":[[[92.873,12.331],[92.974,12.543],[92.841,13.391],[92.699,12.329],[92.873,12.331]]]},"properties":{"st_nm":"Andaman and Nicobar Islands"}},
{"type":"Feature","geometry":{"type":"Polygon","coordinates":[[[77.348,28.52],[77.5,28.206],[77.476,28.085],[77.53,27.927],[77.344,27.85],[77.283,27.799],[77.646,27.242],[77.455,26.743],[77.76,26.933],[78.222,26.832],[78.545,26.764],[78.78,26.769],[79.135,26.44],[78.938,25.952],[78.886,25.913],[78.452,25.572],[78.39,25.206],[78.447,25.122],[78.374,25.099],[78.19,24.842],[78.268,24.45],[78.806,24.179],[78.991,24.417],[78.985,24.442],[78.64,25.071],[78.559,25.213],[78.88,25.158],[79.323,25.15],[79.28,25.324],[79.673,25.121],[80.105,25.35],[80.264,25.024],[80.478,24.976],[80.715,25.066],[81.12,24.904],[81.541,25.188],[82.094,24.817],[82.298,24.607],[82.524,24.677],[82.798,24.576],[82.813,23.962],[83.33,24.102],[83.503,24.525],[83.524,24.55],[83.395,24.781],[83.35,25.184],[83.538,25.309],[83.779,25.398],[83.931,25.558],[84.319,25.668],[84.6,25.732],[84.472,25.882],[84.056,26.1],[84.157,26.376],[84.052,26.552],[84.419,26.632],[84.061,26.887],[83.908,27.275],[83.862,27.335],[83.292,27.335],[82.732,27.487],[82.207,27.844],[81.742,27.953],[81.053,28.405],[80.553,28.691],[80.314,28.629],[80.065,28.837],[79.683,28.855],[79.423,28.897],[78.975,29.131],[78.761,29.264],[78.851,29.348],[78.926,29.439],[78.335,29.798],[78.02,29.582],[77.82,29.674],[77.716,29.886],[77.959,30.242],[77.575,30.401],[77.58,30.379],[77.227,29.939],[77.152,29.688],[77.132,29.484],[77.155,29.297],[77.143,29.167],[77.216,28.853],[77.222,28.831],[77.341,28.61],[77.348,28.52]]]},"properties":{"st_nm":"Uttar Pradesh"}},
{"type":"Feature","geometry":{"type":"Polygon","coordinates":[[[75.474,28.926],[75.528,28.971],[75.346,29.283],[75.24,29.26],[74.603,29.365],[74.526,29.941],[74.448,29.947],[74.298,29.954],[73.968,30.194],[73.398,29.946],[72.945,29.028],[72.662,28.893],[72.3,28.669],[71.881,27.914],[70.758,27.722],[70.371,28.012],[70.026,27.562],[69.587,27.184],[69.51,26.743],[70.174,26.552],[70.14,26.156],[70.269,25.713],[70.674,25.676],[70.665,25.397],[71.112,24.675],[71.188,24.651],[71.287,24.616],[72.058,24.712],[72.335,24.633],[72.959,24.36],[73.002,24.48],[73.067,24.194],[73.378,23.904],[73.369,23.815],[73.627,23.449],[73.959,23.38],[73.982,23.338],[74.32,23.06],[74.734,23.221],[74.772,23.543],[74.941,23.765],[74.908,24.212],[74.697,24.483],[75.191,25.037],[75.352,25.019],[75.549,24.703],[75.785,24.762],[75.921,24.543],[75.837,24.057],[75.462,23.918],[75.69,23.747],[76.213,24.209],[76.881,24.131],[76.844,24.436],[77.069,24.557],[76.877,25.041],[77.312,25.081],[77.083,25.337],[76.594,25.408],[76.546,25.838],[76.852,26.032],[77.12,26.214],[77.375,26.365],[78.222,26.832],[77.76,26.933],[77.455,26.743],[77.646,27.242],[77.283,27.799],[76.977,27.654],[76.854,28.221],[76.543,28.034],[76.312,28.178],[76.225,27.833],[76.077,27.841],[75.933,27.928],[75.893,28.39],[75.67,28.519],[75.474,28.926]]]},"properties":{"st_nm":"Rajasthan"}},
{"type":"Feature","geometry":{"type":"Polygon","coordinates":[[[77.216,28.853],[76.942,28.798],[76.884,28.503],[77.175,28.405],[77.348,28.52],[77.341,28.61],[77.222,28.831],[77.216,28.853]]]},"properties":{"st_nm":"Delhi"}},
{"type":"Feature","geometry":{"type":"Polygon","coordinates":[[[77.283,27.799],[77.344,27.85],[77.53,27.927],[77.476,28.085],[77.5,28.206],[77.348,28.52],[77.175,28.405],[76.884,28.503],[76.942,28.798],[77.216,28.853],[77.143,29.167],[77.155,29.297],[77.132,29.484],[77.152,29.688],[77.227,29.939],[77.58,30.379],[77.208,30.488],[77.123,30.563],[77.025,30.749],[76.777,30.904],[76.838,30.754],[76.828,30.682],[76.907,30.459],[76.748,30.429],[76.643,30.15],[76.467,30.099],[76.214,29.84],[76.098,29.81],[75.947,29.729],[75.72,29.814],[75.303,29.56],[75.191,29.844],[74.705,29.975],[74.526,29.941],[74.603,29.365],[75.24,29.26],[75.346,29.283],[75.528,28.971],[75.474,28.926],[75.67,28.519],[75.893,28.39],[75.933,27.928],[76.077,27.841],[76.225,27.833],[76.312,28.178],[76.543,28.034],[76.854,28.221],[76.977,27.654],[77.283,27.799]]]},"properties":{"st_nm":"Haryana"}},
{"type":"Feature","geometry":{"type":"Polygon","coordinates":[[[88.115,27.619],[88.038,27.22],[88.281,27.132],[88.425,27.071],[88.532,27.176],[88.722,27.139],[88.794,27.417],[88.844,27.993],[88.619,28.098],[88.205,27.942],[88.115,27.619]]]},"properties":{"st_nm":"Sikkim"}},
{"type":"Feature","geometry":{"type":"Polygon","coordinates":[[[83.503,24.525],[83.873,24.532],[84.009,24.642],[84.327,24.49],[84.497,24.288],[84.802,24.531],[85.088,24.37],[85.331,24.51],[85.374,24.554],[85.902,24.766],[86.055,24.78],[86.452,24.373],[86.611,24.608],[86.913,24.547],[87.052,24.627],[87.176,25.057],[87.478,25.195],[87.552,25.331],[87.711,25.258],[88.067,25.484],[87.827,25.891],[87.85,26.039],[88.24,26.458],[88.11,26.548],[87.659,26.38],[87.043,26.56],[86.723,26.425],[86.029,26.666],[85.816,26.6],[85.729,26.809],[85.255,26.754],[84.758,27.003],[84.62,27.34],[84.097,27.517],[83.862,27.335],[83.908,27.275],[84.061,26.887],[84.419,26.632],[84.052,26.552],[84.157,26.376],[84.056,26.1],[84.472,25.882],[84.6,25.732],[84.319,25.668],[83.931,25.558],[83.779,25.398],[83.538,25.309],[83.35,25.184],[83.395,24.781],[83.524,24.55],[83.503,24.525]]]},"properties":{"st_nm":"Bihar"}},
{"type":"Feature","geometry":{"type":"Polygon","coordinates":[[[86.728,22.216],[86.845,22.4],[86.559,22.714],[86.241,22.997],[85.885,23.167],[85.859,23.43],[85.885,23.483],[86.31,23.412],[86.486,23.636],[86.801,23.699],[86.801,23.834],[87.085,23.812],[87.234,24.025],[87.639,24.255],[87.89,24.565],[87.839,24.745],[87.891,24.855],[87.711,25.258],[87.552,25.331],[87.478,25.195],[87.176,25.057],[87.052,24.627],[86.913,24.547],[86.611,24.608],[86.452,24.373],[86.055,24.78],[85.902,24.766],[85.374,24.554],[85.331,24.51],[85.088,24.37],[84.802,24.531],[84.497,24.288],[84.327,24.49],[84.009,24.642],[83.873,24.532],[83.503,24.525],[83.33,24.102],[84.016,23.635],[84.074,23.334],[84.038,23.171],[84.293,22.773],[84.012,22.528],[84.429,22.352],[85.07,22.491],[85.029,22.122],[85.238,22.01],[85.683,22.058],[86.009,22.116],[85.963,22.485],[86.067,22.557],[86.728,22.216]]]},"properties":{"st_nm":"Jharkhand"}},
{"type":"Feature","geometry":{"type":"Polygon","coordinates":[[[78.398,32.525],[78.761,32.654],[79.114,32.384],[79.626,32.74],[79.375,33.085],[78.988,33.334],[79.106,33.617],[78.904,33.976],[79.354,34.036],[79.507,34.475],[80.068,34.714],[80.29,35.607],[79.215,35.979],[78.664,35.858],[77.612,35.468],[76.935,35.783],[76.8,36.047],[76.351,36.359],[75.748,36.588],[75.343,37.052],[74.921,36.905],[74.708,37.077],[73.7,36.684],[73.125,36.687],[72.595,36.262],[72.534,35.917],[73.089,35.882],[73.407,35.563],[73.785,35.525],[73.795,35.244],[74.147,35.097],[74.32,34.787],[74.601,34.737],[75.239,34.629],[75.375,34.388],[75.384,34.362],[75.497,34.234],[75.595,34.198],[76.022,33.998],[76.773,33.251],[77.274,32.874],[77.741,32.969],[78.016,32.62],[78.398,32.525]]]},"properties":{"st_nm":"Ladakh"}},
{"type":"Feature","geometry":{"type":"Polygon","coordinates":[[[74.147,35.097],[73.39,34.374],[73.488,34.145],[73.598,33.713],[73.688,33.087],[74.447,32.789],[74.889,32.521],[75.205,32.418],[75.341,32.346],[75.837,32.511],[75.802,32.885],[76.222,33.021],[76.748,33.18],[76.773,33.251],[76.022,33.998],[75.595,34.198],[75.497,34.234],[75.384,34.362],[75.375,34.388],[75.239,34.629],[74.601,34.737],[74.32,34.787],[74.147,35.097]]]},"properties":{"st_nm":"Jammu and Kashmir"}},
{"type":"Feature","geometry":{"type":"Polygon","coordinates":[[[76.773,33.251],[76.748,33.18],[76.222,33.021],[75.802,32.885],[75.837,32.511],[75.932,32.395],[75.601,32.093],[75.598,32.082],[75.961,31.857],[76.289,31.307],[76.392,31.413],[76.646,31.21],[76.733,30.937],[76.777,30.904],[77.025,30.749],[77.123,30.563],[77.208,30.488],[77.58,30.379],[77.575,30.401],[77.704,30.764],[77.829,31.029],[78.311,31.284],[78.881,31.284],[78.673,32.078],[78.398,32.525],[78.016,32.62],[77.741,32.969],[77.274,32.874],[76.773,33.251]]]},"properties":{"st_nm":"Himachal Pradesh"}},
{"type":"Feature","geometry":{"type":"Polygon","coordinates":[[[75.837,32.511],[75.341,32.346],[75.379,32.183],[74.913,32.044],[74.503,31.74],[74.612,31.5],[74.708,31.072],[74.216,30.691],[73.968,30.194],[74.298,29.954],[74.448,29.947],[74.526,29.941],[74.705,29.975],[75.191,29.844],[75.303,29.56],[75.72,29.814],[75.947,29.729],[76.098,29.81],[76.214,29.84],[76.467,30.099],[76.643,30.15],[76.748,30.429],[76.907,30.459],[76.828,30.682],[76.739,30.693],[76.71,30.761],[76.838,30.754],[76.777,30.904],[76.733,30.937],[76.646,31.21],[76.392,31.413],[76.289,31.307],[75.961,31.857],[75.598,32.082],[75.601,32.093],[75.932,32.395],[75.837,32.511]]]},"properties":{"st_nm":"Punjab"}},
{"type":"Feature","geometry":{"type":"Polygon","coordinates":[[[80.065,28.837],[80.074,28.941],[80.242,29.444],[80.366,29.74],[80.929,30.174],[80.102,30.789],[79.407,31.073],[79.072,31.456],[78.881,31.284],[78.311,31.284],[77.829,31.029],[77.704,30.764],[77.575,30.401],[77.959,30.242],[77.716,29.886],[77.82,29.674],[78.02,29.582],[78.335,29.798],[78.926,29.439],[78.851,29.348],[78.761,29.264],[78.975,29.131],[79.423,28.897],[79.683,28.855],[80.065,28.837]]]},"properties":{"st_nm":"Uttarakhand"}},
{"type":"Feature","geometry":{"type":"Polygon","coordinates":[[[76.828,30.682],[76.838,30.754],[76.71,30.761],[76.739,30.693],[76.828,30.682]]]},"properties":{"st_nm":"Chandigarh"}}
]}